PROBA-1                 
1 26958U 01049B   22302.89156260  .00002586  00000+0  22060-3 0  9993
2 26958  97.8399 262.8793 0069596 255.3280 104.0219 14.96788724144578
BIRD 2                  
1 26959U 01049C   22302.75596810  .00027858  00000+0  52946-3 0  9993
2 26959  97.7631  43.9438 0005441 244.4594 115.6093 15.48221200473939
CUTE-1 (CO-55)          
1 27844U 03031E   22302.84486258  .00000348  00000+0  17540-3 0  9990
2 27844  98.6808 308.5202 0010924  74.8840 285.3546 14.22525554  2980
CUBESAT XI-IV (CO-57)   
1 27848U 03031J   22302.85008218  .00000276  00000+0  14429-3 0  9994
2 27848  98.6850 309.0148 0010864  87.9139 272.3283 14.22072239  2762
GENESIS 1               
1 29252U 06029A   22302.83926853  .00008624  00000+0  37165-3 0  9994
2 29252  64.5227 349.4492 0052463 242.5761 117.0022 15.21926001899411
FALCONSAT-3             
1 30776U 07006E   22302.76273526  .00135219  00000+0  11762-2 0  9992
2 30776  35.4270  93.3803 0004218   6.5702 353.5089 15.67643014870552
GENESIS 2               
1 31789U 07028A   22302.74745164  .00007945  00000+0  35259-3 0  9993
2 31789  64.4975  33.2747 0058135 294.4412  65.0654 15.20727723846313
APRIZESAT 4             
1 35684U 09041D   22302.86894967  .00000789  00000+0  11082-3 0  9994
2 35684  98.3069 321.1078 0045362 280.8612  78.7495 14.79803026714947
APRIZESAT 3             
1 35686U 09041F   22302.71905135  .00001303  00000+0  14098-3 0  9993
2 35686  98.1038  32.3630 0072996 107.2889 253.6331 14.88189182718575
PROBA-2                 
1 36037U 09059B   22302.75654459  .00000211  00000+0  61381-4 0  9992
2 36037  98.2234 126.8444 0014464  57.7288 302.5307 14.53316908688769
APRIZESAT 5             
1 37792U 11044E   22302.94946190  .00000984  00000+0  14791-3 0  9994
2 37792  98.3027 182.1930 0056444 296.2498  63.2916 14.75919585602971
APRIZESAT 6             
1 37793U 11044F   22302.43010615  .00000578  00000+0  97355-4 0  9990
2 37793  98.3827 158.9446 0046422 352.5762 129.0884 14.72912913601584
TET-1                   
1 38710U 12039D   22302.83373169  .00404722  70475-4  86960-3 0  9991
2 38710  97.4939  35.3079 0003291 254.3997 105.6917 15.98513315578621
PROBA-V                 
1 39159U 13021A   22302.38029724  .00000048  00000+0  39181-4 0  9995
2 39159  98.3448 331.4464 0005248  66.6435 293.5296 14.23056007492378
STPSAT-3                
1 39380U 13064A   22302.29652036  .00072130  00000+0  11031-2 0  9999
2 39380  40.4982 307.9969 0009636 195.2253 164.8278 15.53342863501693
APRIZESAT 7             
1 39416U 13066A   22302.88573113  .00001319  00000+0  15995-3 0  9999
2 39416  97.5893 276.4164 0038954 275.4721  84.2051 14.84696949483985
APRIZESAT 8             
1 39425U 13066K   22302.90681023  .00001331  00000+0  17140-3 0  9990
2 39425  97.6452 268.1096 0050337 321.7144  38.0500 14.81822363483144
BUGSAT-1 (TITA)         
1 40014U 14033E   22303.02564794  .00002618  00000+0  22965-3 0  9990
2 40014  98.1461 307.0043 0029080 313.7260  46.1553 14.97277145456273
SAUDISAT 4              
1 40016U 14033G   22302.83474609  .00000598  00000+0  92881-4 0  9995
2 40016  97.6372 130.2929 0049355  66.1097 294.5274 14.75682246450218
APRIZESAT 9             
1 40018U 14033J   22302.87780013  .00000808  00000+0  13613-3 0  9999
2 40018  97.7281 106.3597 0071774 141.1051 219.5352 14.70399772448539
APRIZESAT 10            
1 40019U 14033K   22302.89849617  .00000863  00000+0  15312-3 0  9997
2 40019  97.7857  96.3299 0083607 186.4668 173.5466 14.67426614447693
TDS 1                   
1 40076U 14037H   22302.65343562  .00002847  00000+0  33085-3 0  9997
2 40076  98.3686 182.6528 0007145   9.2090 350.9253 14.86200380449633
TIANTUO 2               
1 40144U 14053B   22302.87831931  .00006586  00000+0  16973-3 0  9998
2 40144  97.1847  20.1982 0012019  76.3561  35.1327 15.39458696455768
TECHNOSAT               
1 42829U 17042E   22302.81823902  .00001872  00000+0  18859-3 0  9992
2 42829  97.4046 149.0392 0012367 279.5481  80.4341 14.92208324288126
FLYING LAPTOP           
1 42831U 17042G   22302.80476110  .00001754  00000+0  17769-3 0  9997
2 42831  97.4059 149.3642 0012188 279.5178  80.4679 14.92054019288122
HAWK-A                  
1 43765U 18099H   22302.80410184  .00003877  00000+0  33640-3 0  9990
2 43765  97.6049   7.3470 0014810 172.7809 187.3630 14.97541875213242
HAWK-B                  
1 43794U 18099AN  22302.60402517  .00003345  00000+0  29102-3 0  9999
2 43794  97.6050   7.1523 0014849 173.7844 186.3565 14.97539616213207
HAWK-C                  
1 43799U 18099AT  22302.60382164  .00003345  00000+0  29099-3 0  9994
2 43799  97.6048   7.0584 0014753 173.4865 186.6551 14.97537073213954
SALSAT                  
1 46495U 20068K   22302.81892974  .00003348  00000+0  23871-3 0  9992
2 46495  97.7416 244.2799 0016278 175.3827 184.7553 15.05161910114398
